{
  "type": "FeatureCollection",
  "features": [
    {
      "type": "Feature",
      "properties": {
        "norad_id": 43823,
        "name": "GEO-KOMPSAT-2A",
        "group": "weather",
        "lat": 0.03898031860070328,
        "lon": -176.0887579018318,
        "alt_km": 35784.860337587386,
        "timestamp": "2025-12-06T22:38:42.378033+00:00",
        "meta_object_name": "GEO-KOMPSAT-2A",
        "meta_object_id": "2018-100A",
        "meta_epoch": "2025-12-06T13:34:38.675424",
        "meta_mean_motion": 1.00271737,
        "meta_eccentricity": 3.127e-05,
        "meta_inclination": 0.0597,
        "meta_ra_of_asc_node": 120.4422,
        "meta_arg_of_pericenter": 74.3499,
        "meta_mean_anomaly": 212.7421,
        "meta_ephemeris_type": 0,
        "meta_classification_type": "U",
        "meta_norad_cat_id": 43823,
        "meta_element_set_no": 999,
        "meta_rev_at_epoch": 2569,
        "meta_bstar": 0,
        "meta_mean_motion_dot": -3.37e-06,
        "meta_mean_motion_ddot": 0,
        "tle_line1": "1 43823U 18100A   25340.56572541 -.00000337  00000+0  00000+0 0  9991",
        "tle_line2": "2 43823   0.0597 120.4422 0000312  74.3499 212.7421  1.00271737 25699"
      },
      "geometry": {
        "type": "Point",
        "coordinates": [
          -176.0887579018318,
          0.03898031860070328
        ]
      }
    },
    {
      "type": "Feature",
      "properties": {
        "norad_id": 44387,
        "name": "METEOR-M2 2",
        "group": "weather",
        "lat": -12.041332840329822,
        "lon": 138.68686255295717,
        "alt_km": 814.5934172737243,
        "timestamp": "2025-12-06T22:38:42.378044+00:00",
        "meta_object_name": "METEOR-M2 2",
        "meta_object_id": "2019-038A",
        "meta_epoch": "2025-12-06T13:18:58.167360",
        "meta_mean_motion": 14.24287559,
        "meta_eccentricity": 0.00010504,
        "meta_inclination": 98.8967,
        "meta_ra_of_asc_node": 320.2082,
        "meta_arg_of_pericenter": 160.6758,
        "meta_mean_anomaly": 199.446,
        "meta_ephemeris_type": 0,
        "meta_classification_type": "U",
        "meta_norad_cat_id": 44387,
        "meta_element_set_no": 999,
        "meta_rev_at_epoch": 33387,
        "meta_bstar": 0.00016216369,
        "meta_mean_motion_dot": 3.29e-06,
        "meta_mean_motion_ddot": 0,
        "tle_line1": "1 44387U 19038A   25340.55483990  .00000329  00000+0  16216-3 0  9996",
        "tle_line2": "2 44387  98.8967 320.2082 0001050 160.6758 199.4460 14.24287559333875"
      },
      "geometry": {
        "type": "Point",
        "coordinates": [
          138.68686255295717,
          -12.041332840329822
        ]
      }
    },
    {
      "type": "Feature",
      "properties": {
        "norad_id": 47719,
        "name": "ARKTIKA-M 1",
        "group": "weather",
        "lat": 55.65591335964713,
        "lon": -142.8795874606264,
        "alt_km": 31422.637370888584,
        "timestamp": "2025-12-06T22:38:42.378058+00:00",
        "meta_object_name": "ARKTIKA-M 1",
        "meta_object_id": "2021-016A",
        "meta_epoch": "2025-12-01T02:41:41.634816",
        "meta_mean_motion": 2.00613156,
        "meta_eccentricity": 0.71974708,
        "meta_inclination": 63.1756,
        "meta_ra_of_asc_node": 85.6045,
        "meta_arg_of_pericenter": 269.084,
        "meta_mean_anomaly": 15.7076,
        "meta_ephemeris_type": 0,
        "meta_classification_type": "U",
        "meta_norad_cat_id": 47719,
        "meta_element_set_no": 999,
        "meta_rev_at_epoch": 3481,
        "meta_bstar": 0,
        "meta_mean_motion_dot": -1.2e-07,
        "meta_mean_motion_ddot": 0,
        "tle_line1": "1 47719U 21016A   25335.11228744 -.00000012  00000+0  00000+0 0  9997",
        "tle_line2": "2 47719  63.1756  85.6045 7197470 269.0840  15.7076  2.00613156 34816"
      },
      "geometry": {
        "type": "Point",
        "coordinates": [
          -142.8795874606264,
          55.65591335964713
        ]
      }
    },
    {
      "type": "Feature",
      "properties": {
        "norad_id": 49008,
        "name": "FENGYUN 3E",
        "group": "weather",
        "lat": -62.08331071591519,
        "lon": 144.6399521185204,
        "alt_km": 832.6895354643348,
        "timestamp": "2025-12-06T22:38:42.378072+00:00",
        "meta_object_name": "FENGYUN 3E",
        "meta_object_id": "2021-062A",
        "meta_epoch": "2025-12-06T14:44:15.094176",
        "meta_mean_motion": 14.1987879,
        "meta_eccentricity": 6.299e-05,
        "meta_inclination": 98.7476,
        "meta_ra_of_asc_node": 341.2079,
        "meta_arg_of_pericenter": 305.7342,
        "meta_mean_anomaly": 54.3775,
        "meta_ephemeris_type": 0,
        "meta_classification_type": "U",
        "meta_norad_cat_id": 49008,
        "meta_element_set_no": 999,
        "meta_rev_at_epoch": 22925,
        "meta_bstar": 5.3730712e-05,
        "meta_mean_motion_dot": 7e-07,
        "meta_mean_motion_ddot": 0,
        "tle_line1": "1 49008U 21062A   25340.61406359  .00000070  00000+0  53731-4 0  9999",
        "tle_line2": "2 49008  98.7476 341.2079 0000629 305.7342  54.3775 14.19878790229256"
      },
      "geometry": {
        "type": "Point",
        "coordinates": [
          144.6399521185204,
          -62.08331071591519
        ]
      }
    },
    {
      "type": "Feature",
      "properties": {
        "norad_id": 51850,
        "name": "GOES 18",
        "group": "weather",
        "lat": 0.00931241740142695,
        "lon": -81.36239753563275,
        "alt_km": 35782.3514577665,
        "timestamp": "2025-12-06T22:38:42.378084+00:00",
        "meta_object_name": "GOES 18",
        "meta_object_id": "2022-021A",
        "meta_epoch": "2025-12-06T13:03:27.114912",
        "meta_mean_motion": 1.00271985,
        "meta_eccentricity": 9.042e-05,
        "meta_inclination": 0.0132,
        "meta_ra_of_asc_node": 146.447,
        "meta_arg_of_pericenter": 150.136,
        "meta_mean_anomaly": 197.86,
        "meta_ephemeris_type": 0,
        "meta_classification_type": "U",
        "meta_norad_cat_id": 51850,
        "meta_element_set_no": 999,
        "meta_rev_at_epoch": 466,
        "meta_bstar": 0,
        "meta_mean_motion_dot": 1.04e-06,
        "meta_mean_motion_ddot": 0,
        "tle_line1": "1 51850U 22021A   25340.54406383  .00000104  00000+0  00000+0 0  9996",
        "tle_line2": "2 51850   0.0132 146.4470 0000904 150.1360 197.8600  1.00271985  4662"
      },
      "geometry": {
        "type": "Point",
        "coordinates": [
          -81.36239753563275,
          0.00931241740142695
        ]
      }
    },
    {
      "type": "Feature",
      "properties": {
        "norad_id": 54234,
        "name": "NOAA 21 (JPSS-2)",
        "group": "weather",
        "lat": -74.52132644109896,
        "lon": 63.55489129308347,
        "alt_km": 835.7998152380351,
        "timestamp": "2025-12-06T22:38:42.378102+00:00",
        "meta_object_name": "NOAA 21 (JPSS-2)",
        "meta_object_id": "2022-150A",
        "meta_epoch": "2025-12-06T14:40:14.399328",
        "meta_mean_motion": 14.19521654,
        "meta_eccentricity": 0.000243,
        "meta_inclination": 98.7453,
        "meta_ra_of_asc_node": 276.9963,
        "meta_arg_of_pericenter": 49.5251,
        "meta_mean_anomaly": 310.6137,
        "meta_ephemeris_type": 0,
        "meta_classification_type": "U",
        "meta_norad_cat_id": 54234,
        "meta_element_set_no": 999,
        "meta_rev_at_epoch": 15922,
        "meta_bstar": 0.00012419876,
        "meta_mean_motion_dot": 2.18e-06,
        "meta_mean_motion_ddot": 0,
        "tle_line1": "1 54234U 22150A   25340.61127777  .00000218  00000+0  12420-3 0  9992",
        "tle_line2": "2 54234  98.7453 276.9963 0002430  49.5251 310.6137 14.19521654159221"
      },
      "geometry": {
        "type": "Point",
        "coordinates": [
          63.55489129308347,
          -74.52132644109896
        ]
      }
    },
    {
      "type": "Feature",
      "properties": {
        "norad_id": 54743,
        "name": "METEOSAT-12 (MTG-I1)",
        "group": "weather",
        "lat": 0.32811886966386866,
        "lon": 55.39298513778293,
        "alt_km": 35791.61337206093,
        "timestamp": "2025-12-06T22:38:42.378115+00:00",
        "meta_object_name": "METEOSAT-12 (MTG-I1)",
        "meta_object_id": "2022-170C",
        "meta_epoch": "2025-12-06T06:08:38.706720",
        "meta_mean_motion": 1.00274269,
        "meta_eccentricity": 0.00015447,
        "meta_inclination": 0.722,
        "meta_ra_of_asc_node": 30.5247,
        "meta_arg_of_pericenter": 220.4766,
        "meta_mean_anomaly": 276.1989,
        "meta_ephemeris_type": 0,
        "meta_classification_type": "U",
        "meta_norad_cat_id": 54743,
        "meta_element_set_no": 999,
        "meta_rev_at_epoch": 1104,
        "meta_bstar": 0,
        "meta_mean_motion_dot": 1e-08,
        "meta_mean_motion_ddot": 0,
        "tle_line1": "1 54743U 22170C   25340.25600355  .00000001  00000+0  00000+0 0  9994",
        "tle_line2": "2 54743   0.7220  30.5247 0001544 220.4766 276.1989  1.00274269 11047"
      },
      "geometry": {
        "type": "Point",
        "coordinates": [
          55.39298513778293,
          0.32811886966386866
        ]
      }
    }
  ]
}